ONEWEB-0309             
1 49095U 21075W   24045.64305431 -.00000025  00000+0 -98359-4 0  9999
2 49095  87.9252 175.6158 0001041  90.2197 269.9054 13.17648640121176
ONEWEB-0310             
1 49096U 21075X   24045.60824966  .00000531  00000+0  14397-2 0  9993
2 49096  87.9052 160.5203 0001519 100.6215 259.5084 13.12443890123227
ONEWEB-0311             
1 49097U 21075Y   24045.64937427  .00000099  00000+0  22167-3 0  9999
2 49097  87.9252 175.6152 0001483 123.9157 236.2116 13.17647981121221
ONEWEB-0312             
1 49098U 21075Z   24045.58767982 -.00000008  00000+0 -54739-4 0  9993
2 49098  87.9251 175.6601 0001038 112.8116 247.3125 13.17649114121197
ONEWEB-0313             
1 49099U 21075AA  24045.64147461  .00000034  00000+0  53611-4 0  9990
2 49099  87.9251 175.6513 0001267 112.5980 247.5286 13.17648780121198
ONEWEB-0314             
1 49100U 21075AB  24045.63513420  .00000066  00000+0  13768-3 0  9997
2 49100  87.9250 175.6155 0001069 117.9254 242.1986 13.17647458121161
ONEWEB-0315             
1 49101U 21075AC  24045.58283217 -.00000218  00000+0 -64196-3 0  9992
2 49101  87.9039 160.5239 0001728 109.2133 250.9183 13.12446442123203
ONEWEB-0316             
1 49102U 21075AD  24045.54885880  .00000074  00000+0  15581-3 0  9995
2 49102  87.9247 145.3481 0001746 115.6354 244.4959 13.18685869124700
